QIANFAN-81              
1 63167U 25046J   25289.01563300  .00000184  00000+0  26632-3 0  9998
2 63167  88.9794 325.8481 0012620 289.7298  70.2492 13.50986768 39691
QIANFAN-82              
1 63168U 25046K   25288.97473367  .00000162  00000+0  23314-3 0  9996
2 63168  88.9794 325.8959 0010864 299.6697  60.3372 13.50969083 39679
QIANFAN-83              
1 63169U 25046L   25288.95355572  .00000193  00000+0  23461-3 0  9999
2 63169  88.9794 325.7879 0011976 285.7982  74.1854 13.61963511 39735
QIANFAN-84              
1 63170U 25046M   25288.92901096  .00000111  00000+0  15304-3 0  9993
2 63170  88.9794 326.0336 0013769 294.8348  65.1371 13.50986446 39596
QIANFAN-85              
1 63171U 25046N   25288.92536164  .00000176  00000+0  25470-3 0  9990
2 63171  88.9793 325.9059 0011185 298.4177  61.5846 13.50972020 39664
QIANFAN-86              
1 63172U 25046P   25289.00767568  .00000162  00000+0  23320-3 0  9992
2 63172  88.9795 325.7581 0009144 304.1787  55.8496 13.50969029 39751
QIANFAN-87              
1 63173U 25046Q   25282.68330257  .00000145  00000+0  20656-3 0  9991
2 63173  88.9804 326.5243 0010016 319.1660  40.8739 13.50979787 38837
QIANFAN-88              
1 63174U 25046R   25283.51451471  .00000149  00000+0  21299-3 0  9995
2 63174  88.9800 326.3915 0010557 325.4993  34.5472 13.50973338 38972
